OBJECT_NAME,OBJECT_ID,EPOCH,MEAN_MOTION,ECCENTRICITY,INCLINATION,RA_OF_ASC_NODE,ARG_OF_PERICENTER,MEAN_ANOMALY,EPHEMERIS_TYPE,CLASSIFICATION_TYPE,NORAD_CAT_ID,ELEMENT_SET_NO,REV_AT_EPOCH,BSTAR,MEAN_MOTION_DOT,MEAN_MOTION_DDOT
STARLINK-31950,2024-098F,2026-07-20T05:14:30.052032,15.27576663,.0001384,43.0013,249.6374,281.5519,78.5177,0,U,59863,999,12211,.29210194E-4,.542E-5,0
STARLINK-31931,2024-098G,2026-07-20T10:22:52.385664,15.27575012,.00012586,42.9996,248.6622,274.3185,85.7523,0,U,59864,999,12214,.2316119E-5,-.198E-5,0
STARLINK-31938,2024-098H,2026-07-20T10:50:24.940320,15.27568563,.00012426,43.0034,247.9428,274.3968,85.6742,0,U,59865,999,12215,.39042889E-4,.812E-5,0
STARLINK-31941,2024-098J,2026-07-20T19:03:06.484320,15.27575798,.00015292,43.0019,228.5491,281.3776,78.6904,0,U,59866,999,12240,.15507343E-4,.164E-5,0
STARLINK-31952,2024-098K,2026-07-20T19:27:27.642240,15.27578035,.00013684,43.0003,246.3409,278.0173,82.0523,0,U,59867,999,12220,.33974951E-4,.673E-5,0
STARLINK-31921,2024-098L,2026-07-20T16:48:22.203936,15.27586373,.00007604,43.0011,206.4676,194.1787,165.9043,0,U,59868,999,12264,.4153328E-5,-.148E-5,0
STARLINK-31760,2024-098M,2026-07-20T19:42:15.766848,15.27578967,.00012601,42.9998,246.4167,282.1409,77.9301,0,U,59869,999,12220,.20790506E-4,.31E-5,0
STARLINK-31945,2024-098N,2026-07-20T19:40:53.790528,15.27575386,.00012159,43.0012,242.0830,274.4007,85.6705,0,U,59870,999,12225,.7681308E-5,-.51E-6,0
STARLINK-31937,2024-098P,2026-07-20T09:43:33.915360,15.27574123,.00012559,42.9996,241.5352,272.0372,88.0336,0,U,59871,999,12222,-.1593376E-5,-.306E-5,0
STARLINK-31940,2024-098R,2026-07-20T10:05:33.465408,15.27573188,.00011083,43.0020,240.7855,271.7111,88.3614,0,U,59873,999,12223,-.15323121E-4,-.684E-5,0
STARLINK-31933,2024-098S,2026-07-20T09:40:19.207776,15.27576037,.00015233,43.0028,248.4454,270.3287,89.7390,0,U,59874,999,12214,.1089277E-4,.38E-6,0
STARLINK-31936,2024-098T,2026-07-20T17:31:34.473504,15.27576422,.00008353,43.0000,214.3218,271.3499,88.7257,0,U,59875,999,12255,.28051508E-4,.51E-5,0
STARLINK-31935,2024-098U,2026-07-20T19:36:42.631776,15.27577786,.00012547,42.9998,246.3870,277.7454,82.3255,0,U,59876,999,12220,.20678472E-4,.307E-5,0
STARLINK-31934,2024-098V,2026-07-19T05:03:59.444352,15.27575415,.00016562,43.0022,251.5143,271.1603,88.9059,0,U,59877,999,12200,.332868E-4,.654E-5,0
STARLINK-31943,2024-098W,2026-07-20T19:00:53.530272,15.51178003,.00200301,42.9936,236.6261,63.7675,296.5241,0,U,59878,999,12166,.1326153E-2,.80596E-3,0
STARLINK-31926,2024-098X,2026-07-20T19:44:15.281376,15.27580192,.00017403,43.0017,235.6308,284.1445,75.9213,0,U,59879,999,12232,.3675667E-4,.749E-5,0
STARLINK-31919,2024-098Y,2026-07-20T11:25:34.784256,15.27576577,.00013827,43.0012,248.1288,273.1354,86.9339,0,U,59880,999,12215,.31008125E-4,.591E-5,0
STARLINK-31974,2024-100A,2026-07-20T09:40:05.378592,15.27578268,.00007198,43.0034,95.9041,279.7542,80.3228,0,U,59885,999,12135,-.474897E-5,-.393E-5,0
STARLINK-31975,2024-100B,2026-07-20T09:43:47.088768,15.27580241,.00010162,43.0006,95.9253,266.9480,93.1256,0,U,59886,999,12145,.35261291E-4,.708E-5,0
STARLINK-31976,2024-100C,2026-07-19T18:53:19.634784,15.27577835,.00010588,43.0040,103.3153,264.8190,95.2541,0,U,59887,999,12131,.37096346E-4,.759E-5,0
STARLINK-31965,2024-100D,2026-07-20T00:35:29.802336,15.27599002,.0000342,43.0007,98.2271,255.0151,105.0663,0,U,59888,999,12129,.18368019E-3,.4799E-4,0
STARLINK-31969,2024-100E,2026-07-20T00:12:08.655264,15.27580335,.00011342,43.0022,94.6509,265.8025,94.2697,0,U,59889,999,12143,.39921142E-4,.837E-5,0
STARLINK-31951,2024-100F,2026-07-20T23:25:17.200992,15.27580259,.00011129,43.0017,92.4619,259.5603,100.5124,0,U,59890,999,12144,.26599439E-4,.47E-5,0
STARLINK-31949,2024-100G,2026-07-20T01:43:44.970528,15.27580813,.00009274,42.9994,97.7122,256.5146,103.5602,0,U,59891,999,12130,-.4427154E-5,-.384E-5,0
STARLINK-31977,2024-100H,2026-07-20T23:13:43.442688,15.27583846,.00010619,42.9966,85.4783,275.0706,85.0024,0,U,59892,999,12162,.34950753E-4,.7E-5,0
STARLINK-31963,2024-100J,2026-07-20T09:54:53.580096,15.27577619,.00005445,43.0014,95.9841,264.8410,95.2379,0,U,59893,999,12145,-.1737815E-4,-.74E-5,0
STARLINK-31961,2024-100K,2026-07-19T17:50:39.911136,15.27574398,.00007919,43.0028,92.6354,267.0719,93.0042,0,U,59894,999,12143,.23002682E-4,.371E-5,0
STARLINK-31964,2024-100L,2026-07-19T23:38:08.270880,15.27552773,.00011328,43.0040,97.9239,244.8567,115.2167,0,U,59895,999,12134,.26872401E-3,.7134E-4,0
STARLINK-31905,2024-100M,2026-07-19T18:10:19.104384,15.27590887,.00004154,43.0018,96.2006,284.2248,75.8558,0,U,59896,999,12139,-.47821378E-4,-.1578E-4,0
STARLINK-31928,2024-100N,2026-07-20T10:11:32.635392,15.27577422,.00007513,43.0030,96.0711,276.7562,83.3204,0,U,59897,999,12135,.17708495E-4,.225E-5,0
