STARLINK-31950          
1 59863U 24098F   26201.21840338  .00000542  00000+0  29210-4 0  9992
2 59863  43.0013 249.6374 0001384 281.5519  78.5177 15.27576663122116
STARLINK-31931          
1 59864U 24098G   26201.43255076 -.00000198  00000+0  23161-5 0  9994
2 59864  42.9996 248.6622 0001258 274.3185  85.7523 15.27575012122144
STARLINK-31938          
1 59865U 24098H   26201.45167755  .00000812  00000+0  39043-4 0  9990
2 59865  43.0034 247.9428 0001242 274.3968  85.6742 15.27568563122154
STARLINK-31941          
1 59866U 24098J   26201.79382505  .00000164  00000+0  15507-4 0  9999
2 59866  43.0019 228.5491 0001529 281.3776  78.6904 15.27575798122404
STARLINK-31952          
1 59867U 24098K   26201.81073660  .00000673  00000+0  33975-4 0  9996
2 59867  43.0003 246.3409 0001368 278.0173  82.0523 15.27578035122201
STARLINK-31921          
1 59868U 24098L   26201.70025699 -.00000148  00000+0  41533-5 0  9992
2 59868  43.0011 206.4676 0000760 194.1787 165.9043 15.27586373122648
STARLINK-31760          
1 59869U 24098M   26201.82101582  .00000310  00000+0  20791-4 0  9994
2 59869  42.9998 246.4167 0001260 282.1409  77.9301 15.27578967122206
STARLINK-31945          
1 59870U 24098N   26201.82006702 -.00000051  00000+0  76813-5 0  9994
2 59870  43.0012 242.0830 0001215 274.4007  85.6705 15.27575386122255
STARLINK-31937          
1 59871U 24098P   26201.40525365 -.00000306  00000+0 -15934-5 0  9991
2 59871  42.9996 241.5352 0001255 272.0372  88.0336 15.27574123122223
STARLINK-31940          
1 59873U 24098R   26201.42052622 -.00000684  00000+0 -15323-4 0  9996
2 59873  43.0020 240.7855 0001108 271.7111  88.3614 15.27573188122231
STARLINK-31933          
1 59874U 24098S   26201.40300009  .00000038  00000+0  10893-4 0  9998
2 59874  43.0028 248.4454 0001523 270.3287  89.7390 15.27576037122142
STARLINK-31936          
1 59875U 24098T   26201.73026011  .00000510  00000+0  28052-4 0  9994
2 59875  43.0000 214.3218 0000835 271.3499  88.7257 15.27576422122558
STARLINK-31935          
1 59876U 24098U   26201.81716009  .00000307  00000+0  20678-4 0  9997
2 59876  42.9998 246.3870 0001254 277.7454  82.3255 15.27577786122203
STARLINK-31934          
1 59877U 24098V   26200.21110468  .00000654  00000+0  33287-4 0  9993
2 59877  43.0022 251.5143 0001656 271.1603  88.9059 15.27575415122004
STARLINK-31943          
1 59878U 24098W   26201.79228623  .00080596  00000+0  13262-2 0  9993
2 59878  42.9936 236.6261 0020030  63.7675 296.5241 15.51178003121663
STARLINK-31926          
1 59879U 24098X   26201.82239909  .00000749  00000+0  36757-4 0  9995
2 59879  43.0017 235.6308 0001740 284.1445  75.9213 15.27580192122329
STARLINK-31919          
1 59880U 24098Y   26201.47609704  .00000591  00000+0  31008-4 0  9991
2 59880  43.0012 248.1288 0001382 273.1354  86.9339 15.27576577122155
STARLINK-31974          
1 59885U 24100A   26201.40284003 -.00000393  00000+0 -47490-5 0  9999
2 59885  43.0034  95.9041 0000719 279.7542  80.3228 15.27578268121358
STARLINK-31975          
1 59886U 24100B   26201.40540612  .00000708  00000+0  35261-4 0  9991
2 59886  43.0006  95.9253 0001016 266.9480  93.1256 15.27580241121451
STARLINK-31976          
1 59887U 24100C   26200.78703281  .00000759  00000+0  37096-4 0  9999
2 59887  43.0040 103.3153 0001058 264.8190  95.2541 15.27577835121314
STARLINK-31965          
1 59888U 24100D   26201.02465049  .00004799  00000+0  18368-3 0  9993
2 59888  43.0007  98.2271 0000342 255.0151 105.0663 15.27599002121297
STARLINK-31969          
1 59889U 24100E   26201.00843351  .00000837  00000+0  39921-4 0  9996
2 59889  43.0022  94.6509 0001134 265.8025  94.2697 15.27580335121439
STARLINK-31951          
1 59890U 24100F   26201.97589353  .00000470  00000+0  26599-4 0  9993
2 59890  43.0017  92.4619 0001112 259.5603 100.5124 15.27580259121443
STARLINK-31949          
1 59891U 24100G   26201.07204827 -.00000384  00000+0 -44272-5 0  9990
2 59891  42.9994  97.7122 0000927 256.5146 103.5602 15.27580813121300
STARLINK-31977          
1 59892U 24100H   26201.96786392  .00000700  00000+0  34951-4 0  9993
2 59892  42.9966  85.4783 0001061 275.0706  85.0024 15.27583846121621
STARLINK-31963          
1 59893U 24100J   26201.41312014 -.00000740  00000+0 -17378-4 0  9990
2 59893  43.0014  95.9841 0000544 264.8410  95.2379 15.27577619121450
STARLINK-31961          
1 59894U 24100K   26200.74351749  .00000371  00000+0  23003-4 0  9994
2 59894  43.0028  92.6354 0000791 267.0719  93.0042 15.27574398121432
STARLINK-31964          
1 59895U 24100L   26200.98481795  .00007134  00000+0  26872-3 0  9996
2 59895  43.0040  97.9239 0001132 244.8567 115.2167 15.27552773121349
STARLINK-31905          
1 59896U 24100M   26200.75716556 -.00001578  00000+0 -47821-4 0  9994
2 59896  43.0018  96.2006 0000415 284.2248  75.8558 15.27590887121394
STARLINK-31928          
1 59897U 24100N   26201.42468328  .00000225  00000+0  17708-4 0  9998
2 59897  43.0030  96.0711 0000751 276.7562  83.3204 15.27577422121356
